 * Orbital characteristics
| | |
|:---|---:|
| Epoch | 2451545 |
| Reference System | Ecliptic |
| Aphelion (m) | 2.89301938795e+12 |
| Perihelion (m) | 2.53422381143e+12 |
| Semi-major axis (a) (m) | 2.71362159969e+12 |
| Eccentricity (e) | 0.0661100974 |
| Orbital period (sidereal) (P) (s) | 770666403.932 |
| Mean anomaly | 96.4807336 |
| Inclination (i) | 0.90266222 |
| Longitude of ascending node (Ω) | 260.3697 |
| Argument of perihelion (ω) | 311.567601 |
 * Physical characteristics
| | |
|:---|---:|
| Mean radius (m) | 71613268.9685 |
| Equatorial radius (m) | 71799000 |
| Polar radius (m) | 71243247.0204 |
| Flattening | 0.0077404 |
| Volume (m^3) | 1.53839941203e+24 |
| Mass (Kg) | 1.5088090288e+28 |
| Mean density (Kg/m^3) | 9807.65474171 |
| Surface gravity (m/s^2) | 195.34540807 |
| Escape velocity (m/s) | 167484.954273 |
| Synodic rotation period (s) | 35708.9745055 |
| Sidereal rotation period (s) | 35707.32 |
| Axial tilt | 42.827 |
| Albedo (Bond) | 0.3 |
| Albedo (geometric) | 0.36 |
 * Surface temperature (Approximate value, only for reference)
| Min | Mean | Max |
|:---:|:---:|:---:|
| 497.023990139 | 513.190230163 | 531.044041228 |
 * Atmosphere
| | |
|:---|:---|
| Surface pressure (Pa) | 101325000000 |
| Composition by volume | 0.00081577% Ar |
|  | 0.0035135% C2H2 |
|  | 0.0015149% C2H4 |
|  | 0.00063788% C2H6 |
|  | 0.00034744% C3H8 |
|  | 0.00036683% C8H18 |
|  | 0.38594% CH4 |
|  | 3.231e-10% CO |
|  | 1.7455e-06% CO2 |
|  | 3.4959e-10% Cl2 |
|  | 91.076% H2 |
|  | 3.7687e-06% H2O |
|  | 1.6927e-06% H2S |
|  | 8.4453% He |
|  | 4.5393e-07% Kr |
|  | 0.043545% N2 |
|  | 0.031764% NH3 |
|  | 0.0014267% Ne |
|  | 0.0091929% O2 |
|  | 1.0021e-08% SO2 |
|  | 4.016e-08% Xe |
 * Satellites
| Name | Diameter(m) | Mass(Kg) | Semi-Major Axis(m) | Orbital Period(s) | Inclination | Eccentricity |
|:---|:---|:---|:---|:---|:---|:---|
| Haven I | 2653748.77831 (2675600 × 2610580.2444) | 4.4924454391e+22 | 338179205 | 38937.024 | 0.412772073 | 0.0716077476 |
| Haven II | 3337186.78816 (3343400 × 3324794.98202) | 8.907491555e+22 | 542181487 | 79042.15872 | 1.78664604 | 0.00522493249 |
| Haven III | 3545653.81109 (3547200 × 3542563.45488) | 1.0662115101e+23 | 869245003 | 160455.581856 | 0.777781099 | 0.0352978711 |
| Haven IV | 4483000 | 2.1966238477e+23 | 2234282130 | 661221.408384 | 0.408130606 | 0.0640945003 |
| Haven XXXIX | 337742.927861 (338760 × 337066.2 × 337404.96) | 7.729779631e+19 | 15006922400 | 11510137.584 | 162.408124 | 0.0125751628 |
| Haven XXXVII | 320749.420045 (322580 × 319676.78 × 319999.36) | 4.755041754e+19 | 15591054600 | 12188669.4432 | 176.430946 | 0.3239661 |
| Haven VI | 99613.6506946 (105846 × 96214.014 × 97060.782) | 1.3304800326e+18 | 16052236600 | 12733458.768 | 148.785507 | 0.0339330833 |
| Haven XVII | 137285.161915 (138912 × 135717.024 × 137245.056) | 5.8201782735e+18 | 16764056100 | 13589757.8496 | 169.831031 | 0.165783762 |
| Haven XX | 37653.7355509 (41638 × 32311.088 × 39681.014) | 1.5911652531e+17 | 16841319400 | 13683816.0864 | 143.443192 | 0.0349202401 |
| Haven XXXIII | 295608.394076 (298400 × 294222.4 × 294222.4) | 2.7688174554e+19 | 17181148300 | 14100072.2784 | 154.916047 | 0.173310346 |
| Haven V | 192406.87722 (193900 × 190215.9 × 193124.4) | 7.5249342e+18 | 17751361200 | 14807800.3392 | 146.82411 | 0.0316786639 |
| Haven XXI | 351750.098931 (352220 × 351163.34 × 351867.78) | 9.791969932e+19 | 18041288000 | 15172053.5808 | 143.378532 | 0.129310559 |
| Haven XLII | 299420.424621 (301840 × 298217.92 × 298217.92) | 3.49969162e+19 | 18469835300 | 15715839.8016 | 157.603402 | 0.166483131 |
| Haven XXX | 345833.195505 (347340 × 344908.62 × 345255.96) | 5.4632813943e+19 | 18624724500 | 15913944.72 | 178.817709 | 0.25984454 |
| Haven VII | 266159.253682 (267320 × 264646.8 × 266518.04) | 2.0399738286e+19 | 19072704800 | 16491550.5792 | 151.811215 | 0.277534142 |
| Haven XXIX | 192279.633801 (195086 × 190794.108 × 190989.194) | 1.1306512244e+19 | 19210726400 | 16670888.208 | 159.302324 | 0.259400461 |
| Haven XLV | 373785.000273 (374660 × 372786.7 × 373910.68) | 7.115840555e+19 | 19631141400 | 17221119.696 | 176.947316 | 0.384638915 |
| Haven XXIV | 125142.985535 (127204 × 121607.024 × 126695.184) | 1.9530787551e+18 | 19684259200 | 17291062.224 | 172.644119 | 0.195997022 |
| Haven XLI | 142586.519403 (146624 × 139732.672 × 141492.16) | 3.2296898143e+18 | 20199040800 | 17973769.968 | 167.162479 | 0.408738041 |
| Haven XVI | 329779.449404 (330220 × 329229.34 × 329889.78) | 1.0067286969e+20 | 20372045300 | 18205181.3088 | 172.020509 | 0.0675173586 |
| Haven XV | 118980.681826 (119904 × 117625.824 × 119424.384) | 5.0909165948e+18 | 20521627100 | 18406056.384 | 143.204919 | 0.0410048815 |
| Haven XXXII | 243194.444187 (245160 × 241727.76 × 242708.4) | 1.8722155733e+19 | 20890210300 | 18904155.408 | 149.448535 | 0.104087252 |
| Haven XI | 175147.405116 (175558 × 174329.094) | 1.7669859379e+19 | 21668878000 | 19970902.7712 | 174.885444 | 0.279286539 |
| Haven XII | 179696.208128 (181886 × 178066.394 × 179157.71) | 9.32852954e+18 | 22843131200 | 21616058.6496 | 169.322544 | 0.47066666 |
| Haven XIX | 264315.261692 (265200 × 263874 × 263874) | 6.854259509e+19 | 23193966400 | 22115949.7824 | 147.493224 | 0.0266880819 |
| Haven XXVI | 262800.147926 (264300 × 261921.3 × 262185.6) | 3.3825176446e+19 | 23217367900 | 22149429.0048 | 157.10766 | 0.308306157 |
| Haven XVIII | 352489.075586 (354620 × 351428.42 × 351428.42) | 4.9510483734e+19 | 23679263300 | 22813679.7216 | 168.964746 | 0.0570417099 |
| Haven XLIII | 144766.968442 (145940 × 143021.2 × 145356.24) | 5.5478473215e+18 | 24353497000 | 23794964.352 | 146.748334 | 0.056449521 |
| Haven XLIV | 324573.122914 (325660 × 323380.38 × 324683.02) | 4.2602474695e+19 | 24546174600 | 24077910.096 | 172.809375 | 0.257165324 |
| Haven XXXV | 25566.0734077 (41736 × 17070.024 × 23455.632) | 4.0400535616e+16 | 24733415300 | 24353937.8784 | 149.240167 | 0.0127349487 |
| Haven XXVII | 218387.44644 (219560 × 217803.52 × 217803.52) | 3.6574763514e+19 | 24783208800 | 24427519.2288 | 153.998719 | 0.198507348 |
| Haven XXXVIII | 249822.497135 (251080 × 248569.2 × 249824.6) | 2.3731014712e+19 | 24873156700 | 24560625.2544 | 150.040786 | 0.12447512 |
| Haven XLIX | 159491.156461 (160510 × 158423.37 × 159546.94) | 1.2295503596e+19 | 25242824400 | 25110188.784 | 146.448377 | 0.00192004185 |
| Haven XLVIII | 93423.6297886 (94440 × 91606.8 × 94251.12) | 2.4428564168e+18 | 25497214700 | 25490724.0192 | 173.883619 | 0.191444253 |
| Haven XLVI | 163398.200795 (166066 × 162080.416 × 162080.416) | 9.911413332e+18 | 25650723300 | 25721274.384 | 158.532936 | 0.140008477 |
| Haven XXV | 121827.079571 (126958 × 118959.646 × 119721.394) | 2.370354273e+18 | 26637894100 | 27220299.0048 | 179.126819 | 0.0396550603 |
| Haven X | 220493.664344 (223180 × 218939.58 × 219385.94) | 1.3970697281e+19 | 27042789400 | 27843273.1584 | 172.945405 | 0.35045791 |
| Haven XIV | 280631.735267 (281760 × 279787.68 × 280351.2) | 4.8022816187e+19 | 27966454900 | 29281895.4528 | 154.557618 | 0.0340852639 |
| Haven XXVIII | 239378.055621 (240260 × 238578.18 × 239298.96) | 3.0690384413e+19 | 28093344600 | 29481408.5184 | 166.275065 | 0.133765219 |
| Haven XL | 366123.182329 (366980 × 365512.08 × 365879.06) | 8.774909381e+19 | 28748024300 | 30517929.4464 | 164.719553 | 0.110713419 |
| Haven IX | 241069.653066 (242120 × 240425.16 × 240667.28) | 4.9106765042e+19 | 28859760300 | 30696024.9888 | 175.206596 | 0.226857809 |
| Haven XXXIV | 76737.2391237 (80774 × 74312.08 × 75281.368) | 1.2582764973e+18 | 29082609500 | 31052253.0528 | 163.129 | 0.0294894084 |
| Haven VIII | 334779.398198 (335900 × 334220.5 × 334220.5) | 8.085123746e+19 | 29091963600 | 31067235.7632 | 156.291866 | 0.0242626706 |
| Haven XIII | 383399.634232 (384040 × 382887.88 × 383271.92) | 1.421973677e+20 | 30972123800 | 34127112.0672 | 155.391293 | 0.00648788987 |
| Haven L | 169612.647973 (170352 × 168818.832 × 169670.592) | 1.8310076003e+19 | 31084940500 | 34313745.0528 | 157.385194 | 0.0089446835 |
| Haven XXIII | 231312.996288 (233340 × 229839.9 × 230773.26) | 1.7897996273e+19 | 31324765600 | 34711613.6832 | 170.181016 | 0.0114177989 |
| Haven XXXVI | 39657.6398903 (48258 × 33104.988 × 39040.722) | 1.1792049665e+17 | 32715841400 | 37049316.624 | 160.137074 | 0.0211985819 |
| Haven XXII | 56672.0394384 (65960 × 51712.64 × 53361.64) | 3.0813411115e+17 | 33195685500 | 37867402.8864 | 176.620936 | 0.0316841614 |
| Haven XXXI | 185818.020579 (187700 × 184509.1 × 185259.9) | 1.2358808598e+19 | 35686685500 | 42208739.1936 | 172.841155 | 0.0229253463 |
| Haven XLVII | 87008.6155378 (96250 × 82390 × 83063.75) | 7.164812349e+17 | 35960768800 | 42695933.328 | 174.468315 | 0.0259277352 |

### Haven I - Rocky planet

 * Orbital characteristics
| | |
|:---|---:|
| Epoch | 2451545 |
| Reference System | Equator |
| Apogee (m) | 362395456.155 |
| Perigee (m) | 313962953.845 |
| Semi-major axis (a) (m) | 338179205 |
| Eccentricity (e) | 0.0716077476 |
| Orbital period (sidereal) (P) (s) | 38937.024 |
| Mean anomaly | 220.495934 |
| Inclination (i) | 0.412772073 |
| Longitude of ascending node (Ω) | 255.475807 |
| Argument of perigee (ω) | 267.395935 |
 * Physical characteristics
| | |
|:---|---:|
| Mean radius (m) | 1326874.38915 |
| Equatorial radius (m) | 1337800 |
| Polar radius (m) | 1305290.1222 |
| Flattening | 0.024301 |
| Volume (m^3) | 9.78538785363e+18 |
| Mass (Kg) | 4.4924454391e+22 |
| Mean density (Kg/m^3) | 4590.97330254 |
| Surface gravity (m/s^2) | 1.67535232123 |
| Escape velocity (m/s) | 2117.20869795 |
| Synodic rotation period (s) | inf |
| Sidereal rotation period (s) | 38937.024 |
| Axial tilt | 0.41277 |
| Albedo (Bond) | 0.3 |
| Albedo (geometric) | 0.36 |
 * Surface temperature (Approximate value, only for reference)
| Min | Mean | Max |
|:---:|:---:|:---:|
| 497.023990139 | 513.190230163 | 531.044041228 |

### Haven II - Rocky planet

